start=new Date('2023-06-22T00:00:00.000Z').valueOf();
sats=[{"APOAPSIS":"574.442","RA_OF_ASC_NODE":"285.5097","REF_FRAME":"TEME","SITE":"AFWTR","TLE_LINE1":"1 55919U 23037F   23172.75062475  .00000012  00000-0  88435-5 0  9991","NORAD_CAT_ID":"55919","ARG_OF_PERICENTER":"269.2413","RCS_SIZE":"LARGE","PERIOD":"96.107","TIME_SYSTEM":"UTC","MEAN_MOTION":"14.98336188","GP_ID":"234443740","ECCENTRICITY":"0.00034580","FILE":"3939317","COUNTRY_CODE":"US","PERIAPSIS":"569.635","CENTER_NAME":"EARTH","DECAY_DATE":null,"MEAN_MOTION_DDOT":"0.0000000000000","MEAN_MOTION_DOT":"0.00000012","LAUNCH_DATE":"2023-03-17","TLE_LINE2":"2 55919  69.9997 285.5097 0003458 269.2413  90.8350 14.98336188 15241","OBJECT_TYPE":"PAYLOAD","SEMIMAJOR_AXIS":"6950.174","OBJECT_NAME":"STARLINK-5871","OBJECT_ID":"2023-037F","MEAN_ANOMALY":"90.8350","CLASSIFICATION_TYPE":"U","ELEMENT_SET_NO":"999","EPOCH":"2023-06-21T18:00:53.978400","MEAN_ELEMENT_THEORY":"SGP4","INCLINATION":"69.9997","REV_AT_EPOCH":"1524","EPHEMERIS_TYPE":"0","BSTAR":"0.00000884350000"},{"NORAD_CAT_ID":"55920","RCS_SIZE":"LARGE","PERIOD":"91.922","ARG_OF_PERICENTER":"270.7113","RA_OF_ASC_NODE":"270.7603","REF_FRAME":"TEME","SITE":"AFWTR","TLE_LINE1":"1 55920U 23037G   23172.91668981 -.00957568  00000-0 -10073-1 0  9993","APOAPSIS":"371.215","PERIAPSIS":"366.415","COUNTRY_CODE":"US","CENTER_NAME":"EARTH","DECAY_DATE":null,"MEAN_MOTION":"15.66540117","GP_ID":"234444252","ECCENTRICITY":"0.00035570","FILE":"3939361","TIME_SYSTEM":"UTC","OBJECT_NAME":"STARLINK-5862","OBJECT_ID":"2023-037G","OBJECT_TYPE":"PAYLOAD","SEMIMAJOR_AXIS":"6746.950","LAUNCH_DATE":"2023-03-17","TLE_LINE2":"2 55920  69.9997 270.7603 0003557 270.7113 327.7410 15.66540117 15611","MEAN_MOTION_DDOT":"0.0000000000000","MEAN_MOTION_DOT":"-0.00957568","BSTAR":"-0.01007300000000","EPHEMERIS_TYPE":"0","MEAN_ELEMENT_THEORY":"SGP4","INCLINATION":"69.9997","REV_AT_EPOCH":"1561","CLASSIFICATION_TYPE":"U","MEAN_ANOMALY":"327.7410","ELEMENT_SET_NO":"999","EPOCH":"2023-06-21T22:00:01.999584"},{"EPOCH":"2023-06-21T17:42:51.916032","ELEMENT_SET_NO":"999","MEAN_ANOMALY":"89.5249","CLASSIFICATION_TYPE":"U","INCLINATION":"69.9999","REV_AT_EPOCH":"1524","MEAN_ELEMENT_THEORY":"SGP4","EPHEMERIS_TYPE":"0","BSTAR":"-0.00001946100000","MEAN_MOTION_DOT":"-0.00000325","MEAN_MOTION_DDOT":"0.0000000000000","TLE_LINE2":"2 55921  69.9999 285.4643 0003428 270.5517  89.5249 14.98339493 15243","LAUNCH_DATE":"2023-03-17","SEMIMAJOR_AXIS":"6950.164","OBJECT_TYPE":"PAYLOAD","OBJECT_ID":"2023-037H","OBJECT_NAME":"STARLINK-5861","TIME_SYSTEM":"UTC","ECCENTRICITY":"0.00034280","FILE":"3939317","GP_ID":"234443249","MEAN_MOTION":"14.98339493","DECAY_DATE":null,"CENTER_NAME":"EARTH","COUNTRY_CODE":"US","PERIAPSIS":"569.646","APOAPSIS":"574.411","TLE_LINE1":"1 55921U 23037H   23172.73810088 -.00000325  00000-0 -19461-4 0  9994","REF_FRAME":"TEME","SITE":"AFWTR","RA_OF_ASC_NODE":"285.4643","RCS_SIZE":"LARGE","PERIOD":"96.106","ARG_OF_PERICENTER":"270.5517","NORAD_CAT_ID":"55921"},{"LAUNCH_DATE":"2023-03-17","TLE_LINE2":"2 55922  70.0002 285.9850 0003573 266.8601  93.2149 14.98333801 14876","MEAN_MOTION_DOT":"-0.00000656","MEAN_MOTION_DDOT":"0.0000000000000","OBJECT_ID":"2023-037J","OBJECT_NAME":"STARLINK-5863","OBJECT_TYPE":"PAYLOAD","SEMIMAJOR_AXIS":"6950.181","ELEMENT_SET_NO":"999","CLASSIFICATION_TYPE":"U","MEAN_ANOMALY":"93.2149","EPOCH":"2023-06-21T13:00:28.793952","EPHEMERIS_TYPE":"0","BSTAR":"-0.00004716300000","MEAN_ELEMENT_THEORY":"SGP4","INCLINATION":"70.0002","REV_AT_EPOCH":"1487","APOAPSIS":"574.529","NORAD_CAT_ID":"55922","ARG_OF_PERICENTER":"266.8601","RCS_SIZE":"LARGE","PERIOD":"96.107","RA_OF_ASC_NODE":"285.9850","TLE_LINE1":"1 55922U 23037J   23172.54199993 -.00000656  00000-0 -47163-4 0  9996","SITE":"AFWTR","REF_FRAME":"TEME","TIME_SYSTEM":"UTC","COUNTRY_CODE":"US","PERIAPSIS":"569.563","DECAY_DATE":null,"CENTER_NAME":"EARTH","MEAN_MOTION":"14.98333801","FILE":"3939133","ECCENTRICITY":"0.00035730","GP_ID":"234437322"},{"APOAPSIS":"574.489","RCS_SIZE":"LARGE","ARG_OF_PERICENTER":"271.6684","PERIOD":"96.107","NORAD_CAT_ID":"55923","SITE":"AFWTR","REF_FRAME":"TEME","TLE_LINE1":"1 55923U 23037K   23172.54617431 -.00000744  00000-0 -54536-4 0  9999","RA_OF_ASC_NODE":"285.9974","TIME_SYSTEM":"UTC","CENTER_NAME":"EARTH","DECAY_DATE":null,"COUNTRY_CODE":"US","PERIAPSIS":"569.602","GP_ID":"234437574","FILE":"3939133","ECCENTRICITY":"0.00035160","MEAN_MOTION":"14.98333966","TLE_LINE2":"2 55923  69.9997 285.9974 0003516 271.6684  88.4072 14.98333966 14879","LAUNCH_DATE":"2023-03-17","MEAN_MOTION_DOT":"-0.00000744","MEAN_MOTION_DDOT":"0.0000000000000","OBJECT_NAME":"STARLINK-5854","OBJECT_ID":"2023-037K","SEMIMAJOR_AXIS":"6950.181","OBJECT_TYPE":"PAYLOAD","EPOCH":"2023-06-21T13:06:29.460384","CLASSIFICATION_TYPE":"U","MEAN_ANOMALY":"88.4072","ELEMENT_SET_NO":"999","EPHEMERIS_TYPE":"0","BSTAR":"-0.00005453600000","INCLINATION":"69.9997","REV_AT_EPOCH":"1487","MEAN_ELEMENT_THEORY":"SGP4"},{"RA_OF_ASC_NODE":"271.6906","TLE_LINE1":"1 55924U 23037L   23172.58334491 -.00871532  00000-0 -89970-2 0  9995","REF_FRAME":"TEME","SITE":"AFWTR","NORAD_CAT_ID":"55924","RCS_SIZE":"LARGE","PERIOD":"91.885","ARG_OF_PERICENTER":"273.9480","APOAPSIS":"369.472","MEAN_MOTION":"15.67176135","ECCENTRICITY":"0.00036800","FILE":"3939133","GP_ID":"234437822","COUNTRY_CODE":"US","PERIAPSIS":"364.507","DECAY_DATE":null,"CENTER_NAME":"EARTH","TIME_SYSTEM":"UTC","OBJECT_TYPE":"PAYLOAD","SEMIMAJOR_AXIS":"6745.124","OBJECT_ID":"2023-037L","OBJECT_NAME":"STARLINK-5849","MEAN_MOTION_DOT":"-0.00871532","MEAN_MOTION_DDOT":"0.0000000000000","LAUNCH_DATE":"2023-03-17","TLE_LINE2":"2 55924  70.0003 271.6906 0003680 273.9480 247.3481 15.67176135  1303","MEAN_ELEMENT_THEORY":"SGP4","REV_AT_EPOCH":"130","INCLINATION":"70.0003","EPHEMERIS_TYPE":"0","BSTAR":"-0.00899700000000","ELEMENT_SET_NO":"999","CLASSIFICATION_TYPE":"U","MEAN_ANOMALY":"247.3481","EPOCH":"2023-06-21T14:00:01.000224"},{"TIME_SYSTEM":"UTC","CENTER_NAME":"EARTH","DECAY_DATE":null,"PERIAPSIS":"569.552","COUNTRY_CODE":"US","GP_ID":"234437072","FILE":"3939133","ECCENTRICITY":"0.00035810","MEAN_MOTION":"14.98335368","APOAPSIS":"574.530","RCS_SIZE":"LARGE","PERIOD":"96.107","ARG_OF_PERICENTER":"270.9317","NORAD_CAT_ID":"55925","SITE":"AFWTR","REF_FRAME":"TEME","TLE_LINE1":"1 55925U 23037M   23172.60040880 -.00000002  00000-0  76004-5 0  9997","RA_OF_ASC_NODE":"285.7851","EPOCH":"2023-06-21T14:24:35.320320","CLASSIFICATION_TYPE":"U","MEAN_ANOMALY":"89.1432","ELEMENT_SET_NO":"999","BSTAR":"0.00000760040000","EPHEMERIS_TYPE":"0","REV_AT_EPOCH":"1488","INCLINATION":"69.9993","MEAN_ELEMENT_THEORY":"SGP4","TLE_LINE2":"2 55925  69.9993 285.7851 0003581 270.9317  89.1432 14.98335368 14883","LAUNCH_DATE":"2023-03-17","MEAN_MOTION_DOT":"-0.00000002","MEAN_MOTION_DDOT":"0.0000000000000","OBJECT_NAME":"STARLINK-5922","OBJECT_ID":"2023-037M","SEMIMAJOR_AXIS":"6950.176","OBJECT_TYPE":"PAYLOAD"},{"TLE_LINE2":"2 55926  69.9997 270.7583 0003589 272.7840 327.5897 15.66560842 15612","LAUNCH_DATE":"2023-03-17","MEAN_MOTION_DDOT":"0.0000000000000","MEAN_MOTION_DOT":"-0.00955630","OBJECT_ID":"2023-037N","OBJECT_NAME":"STARLINK-5921","SEMIMAJOR_AXIS":"6746.891","OBJECT_TYPE":"PAYLOAD","EPOCH":"2023-06-21T22:00:01.999584","ELEMENT_SET_NO":"999","MEAN_ANOMALY":"327.5897","CLASSIFICATION_TYPE":"U","BSTAR":"-0.01004200000000","EPHEMERIS_TYPE":"0","INCLINATION":"69.9997","REV_AT_EPOCH":"1561","MEAN_ELEMENT_THEORY":"SGP4","APOAPSIS":"371.177","RCS_SIZE":"LARGE","ARG_OF_PERICENTER":"272.7840","PERIOD":"91.921","NORAD_CAT_ID":"55926","TLE_LINE1":"1 55926U 23037N   23172.91668981 -.00955630  00000-0 -10042-1 0  9993","REF_FRAME":"TEME","SITE":"AFWTR","RA_OF_ASC_NODE":"270.7583","TIME_SYSTEM":"UTC","DECAY_DATE":null,"CENTER_NAME":"EARTH","PERIAPSIS":"366.334","COUNTRY_CODE":"US","FILE":"3939295","ECCENTRICITY":"0.00035890","GP_ID":"234442663","MEAN_MOTION":"15.66560842"},{"OBJECT_TYPE":"PAYLOAD","SEMIMAJOR_AXIS":"6950.178","OBJECT_NAME":"STARLINK-5919","OBJECT_ID":"2023-037P","MEAN_MOTION_DDOT":"0.0000000000000","MEAN_MOTION_DOT":"-0.00000157","LAUNCH_DATE":"2023-03-17","TLE_LINE2":"2 55927  69.9998 285.7709 0003467 269.0603  91.0159 14.98334904 14885","MEAN_ELEMENT_THEORY":"SGP4","INCLINATION":"69.9998","REV_AT_EPOCH":"1488","EPHEMERIS_TYPE":"0","BSTAR":"-0.00000536550000","CLASSIFICATION_TYPE":"U","MEAN_ANOMALY":"91.0159","ELEMENT_SET_NO":"999","EPOCH":"2023-06-21T14:18:34.765344","RA_OF_ASC_NODE":"285.7709","SITE":"AFWTR","REF_FRAME":"TEME","TLE_LINE1":"1 55927U 23037P   23172.59623571 -.00000157  00000-0 -53655-5 0  9990","NORAD_CAT_ID":"55927","RCS_SIZE":"LARGE","PERIOD":"96.107","ARG_OF_PERICENTER":"269.0603","APOAPSIS":"574.452","MEAN_MOTION":"14.98334904","GP_ID":"234438074","FILE":"3939133","ECCENTRICITY":"0.00034670","PERIAPSIS":"569.633","COUNTRY_CODE":"US","CENTER_NAME":"EARTH","DECAY_DATE":null,"TIME_SYSTEM":"UTC"},{"APOAPSIS":"574.626","NORAD_CAT_ID":"55928","ARG_OF_PERICENTER":"268.9909","RCS_SIZE":"LARGE","PERIOD":"96.107","RA_OF_ASC_NODE":"285.4054","TLE_LINE1":"1 55928U 23037Q   23172.72140959 -.00000293  00000-0 -16765-4 0  9991","SITE":"AFWTR","REF_FRAME":"TEME","TIME_SYSTEM":"UTC","COUNTRY_CODE":"US","PERIAPSIS":"569.481","DECAY_DATE":null,"CENTER_NAME":"EARTH","MEAN_MOTION":"14.98331400","ECCENTRICITY":"0.00037010","FILE":"3939295","GP_ID":"234443050","LAUNCH_DATE":"2023-03-17","TLE_LINE2":"2 55928  69.9996 285.4054 0003701 268.9909  91.0826 14.98331400 15242","MEAN_MOTION_DDOT":"0.0000000000000","MEAN_MOTION_DOT":"-0.00000293","OBJECT_ID":"2023-037Q","OBJECT_NAME":"STARLINK-5930","OBJECT_TYPE":"PAYLOAD","SEMIMAJOR_AXIS":"6950.189","ELEMENT_SET_NO":"999","CLASSIFICATION_TYPE":"U","MEAN_ANOMALY":"91.0826","EPOCH":"2023-06-21T17:18:49.788576","EPHEMERIS_TYPE":"0","BSTAR":"-0.00001676500000","MEAN_ELEMENT_THEORY":"SGP4","INCLINATION":"69.9996","REV_AT_EPOCH":"1524"}];
